NORAD_CAT_ID,OBJECT_NAME,OBJECT_TYPE,EPOCH,MEAN_MOTION,ECCENTRICITY,INCLINATION,RA_OF_ASC_NODE,ARG_OF_PERICENTER,MEAN_ANOMALY,BSTAR,MEAN_MOTION_DOT,MEAN_MOTION_DDOT,TLE_LINE0,TLE_LINE1,TLE_LINE2,SEMIMAJOR_AXIS,PERIOD,APOGEE,PERIGEE,DECAYED
53560.0,STARLINK-4564,PAYLOAD,2024-06-23 17:10:01,15.08843727,0.0001285,53.2186,335.4345,91.7299,268.384,4.7088e-05,4.62e-06,0.0,0 STARLINK-4564,1 53560U 22101AK  24175.71529368  .00000462  00000-0  47088-4 0  9998,2 53560  53.2186 335.4345 0001285  91.7299 268.3840 15.08843727102241,6917.869,95.437,540.623,538.845,0.0
53560.0,STARLINK-4564,PAYLOAD,2024-06-24 13:50:02,15.08836859,0.0001275,53.2187,331.568,100.5356,259.578,2.1619e-05,5.6e-07,0.0,0 STARLINK-4564,1 53560U 22101AK  24176.57641796  .00000056  00000-0  21619-4 0  9994,2 53560  53.2187 331.5680 0001275 100.5356 259.5780 15.08836859102370,6917.89,95.438,540.637,538.873,0.0
53560.0,STARLINK-4564,PAYLOAD,2024-06-25 13:40:49,15.08835994,0.0001325,53.2187,327.1073,101.8714,258.2427,5.9561e-06,-1.93e-06,0.0,0 STARLINK-4564,1 53560U 22101AK  24177.57002048 -.00000193  00000-0  59561-5 0  9997,2 53560  53.2187 327.1073 0001325 101.8714 258.2427 15.08835994102525,6917.893,95.438,540.674,538.841,0.0
53560.0,STARLINK-4564,PAYLOAD,2024-06-25 16:51:35,15.08837167,0.0001385,53.219,326.5127,103.5352,256.5795,1.5222e-05,-4.6e-07,0.0,0 STARLINK-4564,1 53560U 22101AK  24177.70249953 -.00000046  00000-0  15222-4 0  9992,2 53560  53.2190 326.5127 0001385 103.5352 256.5795 15.08837167102540,6917.889,95.438,540.712,538.796,0.0
53560.0,STARLINK-4564,PAYLOAD,2024-06-26 02:23:54,15.08838859,0.0001465,53.2203,324.7345,107.5837,252.5315,0.00018341,2.632e-05,0.0,0 STARLINK-4564,1 53560U 22101AK  24178.09993527  .00002632  00000-0  18341-3 0  9994,2 53560  53.2203 324.7345 0001465 107.5837 252.5315 15.08838859102608,6917.884,95.438,540.762,538.735,0.0
53560.0,STARLINK-4564,PAYLOAD,2024-06-26 18:17:46,15.08829946,0.0001873,53.2185,321.7541,79.1884,280.9319,1.928e-05,1.9e-07,0.0,0 STARLINK-4564,1 53560U 22101AK  24178.76234859  .00000019  00000-0  19280-4 0  9995,2 53560  53.2185 321.7541 0001873  79.1884 280.9319 15.08829946102708,6917.911,95.438,541.072,538.48,0.0
53560.0,STARLINK-4564,PAYLOAD,2024-06-27 16:33:10,15.08833772,0.0001212,53.2179,317.5929,82.0738,278.0392,5.7253e-05,6.23e-06,0.0,0 STARLINK-4564,1 53560U 22101AK  24179.68970776  .00000623  00000-0  57253-4 0  9995,2 53560  53.2179 317.5929 0001212  82.0738 278.0392 15.08833772102848,6917.899,95.438,540.603,538.926,0.0
53560.0,STARLINK-4564,PAYLOAD,2024-06-28 13:13:11,15.08839605,0.0001228,53.2175,313.7264,74.0121,286.1006,0.00015534,2.185e-05,0.0,0 STARLINK-4564,1 53560U 22101AK  24180.55082338  .00002185  00000-0  15534-3 0  9991,2 53560  53.2175 313.7264 0001228  74.0121 286.1006 15.08839605102975,6917.882,95.438,540.596,538.897,0.0
53560.0,STARLINK-4564,PAYLOAD,2024-06-28 14:48:34,15.08842919,0.0001222,53.2163,313.4306,88.9851,271.1281,0.00016177,2.288e-05,0.0,0 STARLINK-4564,1 53560U 22101AK  24180.61706094  .00002288  00000-0  16177-3 0  9998,2 53560  53.2163 313.4306 0001222  88.9851 271.1281 15.08842919102986,6917.871,95.437,540.582,538.891,0.0
53560.0,STARLINK-4564,PAYLOAD,2024-06-28 16:23:56,15.08855735,0.0001122,53.2167,313.1322,95.6689,264.4431,0.00026665,3.96e-05,0.0,0 STARLINK-4564,1 53560U 22101AK  24180.68329048  .00003960  00000-0  26665-3 0  9996,2 53560  53.2167 313.1322 0001122  95.6689 264.4431 15.08855735102991,6917.832,95.437,540.473,538.921,0.0
53560.0,STARLINK-4564,PAYLOAD,2024-06-29 01:56:13,15.088682,0.0001569,53.2172,311.3473,61.1449,298.9701,0.00034985,5.288e-05,0.0,0 STARLINK-4564,1 53560U 22101AK  24181.08071709  .00005288  00000-0  34985-3 0  9998,2 53560  53.2172 311.3473 0001569  61.1449 298.9701 15.08868200103052,6917.794,95.436,540.745,538.574,0.0
53560.0,STARLINK-4564,PAYLOAD,2024-06-29 13:04:00,15.08810026,0.0001072,53.2164,309.2642,58.3793,301.7304,-0.00019153,-3.332e-05,0.0,0 STARLINK-4564,1 53560U 22101AK  24181.54445012 -.00003332  00000-0 -19153-3 0  9991,2 53560  53.2164 309.2642 0001072  58.3793 301.7304 15.08810026103129,6917.972,95.439,540.579,539.095,0.0
53560.0,STARLINK-4564,PAYLOAD,2024-06-29 14:39:23,15.08809217,0.0001018,53.2164,308.9671,58.49,301.6191,-0.00019227,-3.344e-05,0.0,0 STARLINK-4564,1 53560U 22101AK  24181.61069146 -.00003344  00000-0 -19227-3 0  9994,2 53560  53.2164 308.9671 0001018  58.4900 301.6191 15.08809217103132,6917.974,95.44,540.544,539.135,0.0
53560.0,STARLINK-4564,PAYLOAD,2024-06-29 16:14:45,15.08823158,0.0001253,53.2162,308.6702,59.7635,300.3481,-0.00019043,-3.316e-05,0.0,0 STARLINK-4564,1 53560U 22101AK  24181.67691333 -.00003316  00000-0 -19043-3 0  9994,2 53560  53.2162 308.6702 0001253  59.7635 300.3481 15.08823158103141,6917.932,95.439,540.664,538.93,0.0
53560.0,STARLINK-4564,PAYLOAD,2024-06-30 08:08:36,15.08837851,0.0001056,53.2161,305.6969,81.7895,278.3217,-0.00017271,-3.035e-05,0.0,0 STARLINK-4564,1 53560U 22101AK  24182.33931308 -.00003035  00000-0 -17271-3 0  9996,2 53560  53.2161 305.6969 0001056  81.7895 278.3217 15.08837851103243,6917.887,95.438,540.482,539.021,0.0
53560.0,STARLINK-4564,PAYLOAD,2024-06-30 14:30:08,15.08847091,0.0001066,53.2147,304.51,73.1906,286.9203,2.9584e-05,1.83e-06,0.0,0 STARLINK-4564,1 53560U 22101AK  24182.60426646  .00000183  00000-0  29584-4 0  9990,2 53560  53.2147 304.5100 0001066  73.1906 286.9203 15.08847091103282,6917.859,95.437,540.461,538.986,0.0
53560.0,STARLINK-4564,PAYLOAD,2024-07-01 01:37:49,15.08860781,0.000141,53.2177,302.4259,69.1119,291.0024,0.00026623,3.954e-05,0.0,0 STARLINK-4564,1 53560U 22101AK  24183.06793728  .00003954  00000-0  26623-3 0  9998,2 53560  53.2177 302.4259 0001410  69.1119 291.0024 15.08860781103358,6917.817,95.436,540.657,538.706,0.0
53560.0,STARLINK-4564,PAYLOAD,2024-07-01 12:45:33,15.08826965,0.0001337,53.2167,300.3462,71.2497,288.8641,0.00030992,4.646e-05,0.0,0 STARLINK-4564,1 53560U 22101AK  24183.53163629  .00004646  00000-0  30992-3 0  9994,2 53560  53.2167 300.3462 0001337  71.2497 288.8641 15.08826965103424,6917.92,95.438,540.71,538.86,0.0
53560.0,STARLINK-4564,PAYLOAD,2024-07-01 14:20:56,15.08824554,0.0001825,53.2168,300.0484,80.5837,279.5361,0.00047393,7.259e-05,0.0,0 STARLINK-4564,1 53560U 22101AK  24183.59788066  .00007259  00000-0  47393-3 0  9994,2 53560  53.2168 300.0484 0001825  80.5837 279.5361 15.08824554103438,6917.928,95.439,541.055,538.53,0.0
53560.0,STARLINK-4564,PAYLOAD,2024-07-02 14:11:43,15.08839038,0.0001124,53.2164,295.5853,73.4853,286.6262,5.6333e-05,6.09e-06,0.0,0 STARLINK-4564,1 53560U 22101AK  24184.59147212  .00000609  00000-0  56333-4 0  9994,2 53560  53.2164 295.5853 0001124  73.4853 286.6262 15.08839038103581,6917.883,95.438,540.526,538.971,0.0
53560.0,STARLINK-4564,PAYLOAD,2024-07-02 17:22:29,15.08840705,0.0001211,53.2169,294.9913,72.9994,287.1131,-8.6591e-05,-1.666e-05,0.0,0 STARLINK-4564,1 53560U 22101AK  24184.72395077 -.00001666  00000-0 -86591-4 0  9998,2 53560  53.2169 294.9913 0001211  72.9994 287.1131 15.08840705103600,6917.878,95.438,540.581,538.905,0.0
53560.0,STARLINK-4564,PAYLOAD,2024-07-03 14:02:30,15.08833162,0.0001151,53.2165,291.1267,81.5163,278.596,0.00010128,1.324e-05,0.0,0 STARLINK-4564,1 53560U 22101AK  24185.58507485  .00001324  00000-0  10128-3 0  9992,2 53560  53.2165 291.1267 0001151  81.5163 278.5960 15.08833162103731,6917.901,95.438,540.563,538.97,0.0
53560.0,STARLINK-4564,PAYLOAD,2024-07-03 23:34:48,15.08849325,0.0001089,53.2172,289.3422,73.6741,286.4371,0.00015356,2.158e-05,0.0,0 STARLINK-4564,1 53560U 22101AK  24185.98250298  .00002158  00000-0  15356-3 0  9997,2 53560  53.2172 289.3422 0001089  73.6741 286.4371 15.08849325103793,6917.852,95.437,540.47,538.964,0.0
53560.0,STARLINK-4564,PAYLOAD,2024-07-04 12:17:54,15.08830446,0.000138,53.2175,286.9649,88.1273,271.9877,5.9791e-05,6.64e-06,0.0,0 STARLINK-4564,1 53560U 22101AK  24186.51244004  .00000664  00000-0  59791-4 0  9997,2 53560  53.2175 286.9649 0001380  88.1273 271.9877 15.08830446103878,6917.91,95.438,540.729,538.82,0.0
53560.0,STARLINK-4564,PAYLOAD,2024-07-04 13:53:17,15.08833839,0.0001193,53.2172,286.6688,89.3753,270.7376,9.8282e-05,1.276e-05,0.0,0 STARLINK-4564,1 53560U 22101AK  24186.57867733  .00001276  00000-0  98282-4 0  9991,2 53560  53.2172 286.6688 0001193  89.3753 270.7376 15.08833839103884,6917.899,95.438,540.59,538.939,0.0
53560.0,STARLINK-4564,PAYLOAD,2024-07-04 23:25:35,15.08846217,0.0001312,53.2168,284.8844,90.1747,269.9396,0.00012502,1.703e-05,0.0,0 STARLINK-4564,1 53560U 22101AK  24186.97610934  .00001703  00000-0  12502-3 0  9999,2 53560  53.2168 284.8844 0001312  90.1747 269.9396 15.08846217103942,6917.861,95.437,540.634,538.819,0.0
53560.0,STARLINK-4564,PAYLOAD,2024-07-05 12:08:42,15.08827959,0.0001377,53.2195,282.5058,93.8886,266.2264,2.3425e-05,8.5e-07,0.0,0 STARLINK-4564,1 53560U 22101AK  24187.50604490  .00000085  00000-0  23425-4 0  9998,2 53560  53.2195 282.5058 0001377  93.8886 266.2264 15.08827959104025,6917.917,95.438,540.735,538.83,0.0
53560.0,STARLINK-4564,PAYLOAD,2024-07-05 13:44:05,15.0882818,0.0001298,53.2191,282.2082,86.1172,273.9969,4.8356e-06,-2.11e-06,0.0,0 STARLINK-4564,1 53560U 22101AK  24187.57228539 -.00000211  00000-0  48356-5 0  9994,2 53560  53.2191 282.2082 0001298  86.1172 273.9969 15.08828180104035,6917.917,95.438,540.679,538.884,0.0
53560.0,STARLINK-4564,PAYLOAD,2024-07-06 11:59:28,15.08835814,0.0001408,53.2194,278.0456,87.4873,272.628,9.8044e-05,1.273e-05,0.0,0 STARLINK-4564,1 53560U 22101AK  24188.49964084  .00001273  00000-0  98044-4 0  9994,2 53560  53.2194 278.0456 0001408  87.4873 272.6280 15.08835814104170,6917.893,95.438,540.732,538.784,0.0
53560.0,STARLINK-4564,PAYLOAD,2024-07-06 13:34:51,15.08838686,0.0001132,53.2171,277.7474,76.8568,283.255,9.4063e-05,1.209e-05,0.0,0 STARLINK-4564,1 53560U 22101AK  24188.56587872  .00001209  00000-0  94063-4 0  9994,2 53560  53.2171 277.7474 0001132  76.8568 283.2550 15.08838686104187,6917.884,95.438,540.533,538.966,0.0
